OBJECT_NAME,OBJECT_ID,EPOCH,MEAN_MOTION,ECCENTRICITY,INCLINATION,RA_OF_ASC_NODE,ARG_OF_PERICENTER,MEAN_ANOMALY,EPHEMERIS_TYPE,CLASSIFICATION_TYPE,NORAD_CAT_ID,ELEMENT_SET_NO,REV_AT_EPOCH,BSTAR,MEAN_MOTION_DOT,MEAN_MOTION_DDOT
HAMSAT (VO-52),2005-017B,2026-07-18T08:05:22.595712,15.09975064,.00174085,97.9901,223.7326,292.6731,67.2656,0,U,28650,999,15146,.14318496E-3,.2261E-4,0
NOAA 18,2005-018A,2026-07-18T13:06:01.053792,14.13734391,.00152017,98.8107,278.7670,64.3106,295.9635,0,U,28654,999,9074,.29179282E-4,.12E-6,0
SJ-7,2005-024A,2026-07-18T12:30:42.046272,15.21961286,.00136035,97.7274,230.4757,283.8172,76.1550,0,U,28737,999,15279,.15792383E-3,.3534E-4,0
CUBESAT XI-V,2005-043F,2026-07-18T09:14:49.557120,14.72706792,.00153208,98.3020,355.6693,105.9745,254.3151,0,U,28895,999,10634,.10630429E-3,.626E-5,0
CLOUDSAT,2006-016A,2026-07-18T14:03:56.525760,14.86448552,.00043335,98.3913,238.6155,218.7433,141.3471,0,U,29107,999,7917,.48631721E-4,.369E-5,0
CALIPSO,2006-016B,2026-07-18T14:54:55.222272,14.69404176,.00014661,98.4471,216.3574,110.3543,249.7820,0,U,29108,999,7767,.87994749E-4,.468E-5,0
HINODE (SOLAR-B),2006-041A,2026-07-18T10:58:48.300672,14.68660447,.0017289,98.0548,215.1492,183.9439,176.1633,0,U,29479,999,5946,.53207858E-4,.261E-5,0
METOP-A,2006-044A,2026-07-18T14:13:26.009760,14.76050892,.0172915,98.3353,307.2842,329.6076,155.3655,0,U,29499,999,3008,.56725976E-4,.428E-5,0
SHIJIAN-6 02B (SJ-6 02B),2006-046B,2026-07-18T16:04:18.653376,15.01441579,.00129738,97.7137,228.5332,324.0213,36.0136,0,U,29506,999,7546,.49117408E-4,.574E-5,0
DMSP 5D-3 F17 (USA 191),2006-050A,2026-07-18T15:16:05.386080,14.14996190,.00095271,98.7389,205.5640,332.6558,27.4113,0,U,29522,999,1687,.315044E-5,-.37E-6,0
LAPAN-TUBSAT,2007-001A,2026-07-18T15:12:18.600768,14.85980857,.00136601,98.1352,199.5690,83.7700,276.5070,0,U,29709,999,5582,.10614521E-3,.871E-5,0
HAIYANG-1B,2007-010A,2026-07-18T09:34:38.174016,14.31033828,.00147517,98.3516,180.0367,107.0422,253.2379,0,U,31113,999,510,.28549602E-4,.34E-6,0
BEIDOU-2 M1,2007-011A,2026-07-15T13:42:30.254400,1.77349362,.0002048,50.9235,218.3344,327.9250,32.1102,0,U,31115,999,7665,0,.45E-6,0
CAPE-1,2007-012P,2026-07-18T09:13:59.805408,14.64958418,.0082812,98.4482,174.7196,334.7865,24.9305,0,U,31130,999,2292,.12297768E-3,.635E-5,0
CBERS 2B,2007-042A,2026-07-18T06:57:47.644992,14.41489569,.0029797,98.3930,143.3994,240.1389,286.5866,0,U,32062,999,98916,.37252536E-4,.78E-6,0
COSMO-SKYMED 2,2007-059A,2026-07-18T14:54:10.992384,14.82151929,.00014487,97.8896,22.7644,93.8377,266.3001,0,U,32376,999,666,.24618559E-4,.144E-5,0
CARTOSAT-2A,2008-021A,2026-07-18T13:37:52.150944,14.79280981,.0012196,97.7610,247.2032,17.0348,343.1271,0,U,32783,999,98344,.13083595E-3,.924E-5,0
CUTE-1.7+APD II (CO-65),2008-021C,2026-07-18T14:25:47.903232,15.09717241,.00068358,97.8299,181.6832,285.4283,74.6190,0,U,32785,999,98993,.12036765E-3,.1873E-4,0
SEEDS II (CO-66),2008-021J,2026-07-18T11:04:04.594656,15.33733639,.00034594,97.7530,198.8780,149.6253,210.5190,0,U,32791,999,99208,.29893879E-3,.967E-4,0
YUBILEINY (RS30),2008-025A,2026-07-18T15:30:03.227616,12.43180185,.00186972,82.5069,335.8701,240.9937,118.9269,0,U,32953,999,82360,-.75649559E-3,-.95E-6,0
FENGYUN 3A,2008-026A,2026-07-18T13:16:53.563872,14.19576849,.00095414,98.6886,139.8009,43.1787,317.0136,0,U,32958,999,93985,.27289719E-4,.14E-6,0
HUANJING 1A (HJ-1A),2008-041A,2026-07-18T15:42:03.045024,14.84054344,.00201212,97.6701,184.2798,39.0277,321.2385,0,U,33320,999,96307,.1179665E-3,.935E-5,0
HUANJING 1B (HJ-1B),2008-041B,2026-07-18T15:18:20.849184,14.83366694,.00379524,97.6537,187.3400,80.3941,280.1558,0,U,33321,999,96307,-.49016E-7,-.52E-6,0
SHIJIAN-6 03A (SJ-6 03A),2008-053A,2026-07-18T13:43:20.339616,15.17435256,.00096134,97.8390,233.9872,262.5518,97.4622,0,U,33408,999,96772,.13840278E-3,.2698E-4,0
SHIJIAN-6 03B (SJ-6 03B),2008-053B,2026-07-18T15:04:23.737728,15.04379641,.00177984,97.8559,220.0415,298.1148,61.8278,0,U,33409,999,96747,.2755014E-5,-.27E-6,0
CHUANGXIN 1-02 (CX-1-02),2008-056B,2026-07-18T13:41:47.559840,14.30159250,.0015283,98.6123,225.5235,51.2109,309.0436,0,U,33434,999,92310,.44457022E-4,.71E-6,0
STARS (KUKAI),2009-002G,2026-07-18T14:11:55.606848,14.95937842,.00098853,98.1556,148.1881,70.5398,289.6889,0,U,33498,999,94317,.16480372E-3,.1784E-4,0
KKS-1 (KISEKI),2009-002H,2026-07-18T11:49:26.036544,14.83193388,.00076935,98.1172,122.4309,178.0327,182.0918,0,U,33499,999,94083,.77384115E-4,.576E-5,0
NOAA 19,2009-005A,2026-07-18T13:12:23.472288,14.13478582,.00128094,98.9508,270.4457,304.0768,55.9188,0,U,33591,999,89891,.29679817E-4,.11E-6,0
UK-DMC 2,2009-041C,2026-07-18T16:18:42.409728,14.76097733,.00016483,97.8880,333.8833,100.0927,260.0469,0,U,35683,999,91121,.11301143E-3,.73E-5,0
METEOR-M 1,2009-049A,2026-07-18T08:40:38.503200,14.23162867,.00016811,98.7405,161.6141,188.3963,171.7188,0,U,35865,999,87368,.2516776E-4,.13E-6,0
OCEANSAT-2,2009-051A,2026-07-18T13:58:00.814368,13.99655931,.00175636,98.2322,183.2989,143.7770,216.4590,0,U,35931,999,88372,.15565732E-4,-.15E-6,0
SWISSCUBE,2009-051B,2026-07-18T12:04:39.162720,14.62534100,.00079788,98.4003,107.9339,110.2431,249.9628,0,U,35932,999,89373,.94449421E-4,.43E-5,0
BEESAT-1,2009-051C,2026-07-18T11:03:16.146720,14.61764711,.00062744,98.3930,107.4601,121.4564,238.7250,0,U,35933,999,89375,.82605984E-4,.363E-5,0
ITUPSAT1,2009-051E,2026-07-18T11:29:38.742432,14.60481304,.00082818,98.4014,106.6370,133.9775,226.2109,0,U,35935,999,89330,.76012373E-4,.32E-5,0
DMSP 5D-3 F18 (USA 210),2009-057A,2026-07-18T14:37:42.311136,14.14913143,.00114342,98.9058,180.3138,156.0441,204.1266,0,U,35951,999,86403,.10448926E-3,.157E-5,0
PROBA-2,2009-059B,2026-07-18T07:50:46.210272,14.54874349,.00132273,98.2462,22.2497,178.9883,181.1343,0,U,36037,999,88605,.24359219E-4,.59E-6,0
YAOGAN-7,2009-069A,2026-07-18T15:16:24.442464,14.78037203,.00233197,98.0027,85.3033,299.7414,60.1476,0,U,36110,999,89427,.31314483E-4,.174E-5,0
XIWANG-1 (HOPE-1),2009-072B,2026-07-18T15:09:23.080896,13.16437857,.00076349,100.4043,152.9641,157.1163,203.0291,0,U,36122,999,79714,-.86492289E-3,-.375E-5,0
RADUGA-1M 2,2010-002A,2026-07-18T12:16:54.782688,0.98970197,.00047696,3.7008,78.4703,262.8367,300.8468,0,U,36358,999,5033,0,-.261E-5,0
COSMOS 2463,2010-017A,2026-07-18T12:07:32.062944,13.71667304,.00371315,82.9579,226.6949,44.9622,123.3706,0,U,36519,999,81222,.5829013E-5,.21E-6,0
CARTOSAT-2B,2010-035A,2026-07-18T16:06:39.818016,14.78653291,.00127328,97.9931,250.0166,89.7749,270.4921,0,U,36795,999,86450,.40742435E-4,.246E-5,0
AISSAT 1,2010-035C,2026-07-18T13:11:45.060576,14.97484644,.00076965,98.0892,99.8966,324.0465,36.0237,0,U,36797,999,86891,.11807653E-3,.1313E-4,0
TISAT 1,2010-035E,2026-07-18T07:58:07.472352,15.32804931,.00046838,98.0713,148.6745,113.7604,246.4128,0,U,36799,999,87247,.35795106E-3,.1126E-3,0
YAOGAN-10,2010-038A,2026-07-18T14:48:39.109248,14.85433942,.0001588,97.8964,222.7712,80.6894,30.4579,0,U,36834,999,86187,.57604953E-4,.442E-5,0
SHIJIAN-6 04B (SJ-6 04B),2010-051B,2026-07-18T14:08:41.445312,14.99381483,.00080787,97.8728,205.3366,201.4302,158.6583,0,U,37180,999,86038,-.18532327E-4,-.288E-5,0
FENGYUN 3B,2010-059A,2026-07-18T15:37:42.248352,14.14848773,.00231674,98.9598,245.7966,97.2082,61.2349,0,U,37214,999,81187,.24492646E-3,.429E-5,0
COSMO-SKYMED 4,2010-060A,2026-07-18T15:12:25.432416,14.82149851,.00015242,97.8894,22.7782,85.0247,275.1140,0,U,37216,999,84922,-.5074567E-5,-.93E-6,0
O/OREOS (USA 219),2010-062C,2026-07-18T11:16:17.407488,14.93858463,.00141768,71.9699,9.4697,358.7498,1.3635,0,U,37224,999,12131,.96878329E-4,.967E-5,0
ELEKTRO-L 1 (GOMS 2),2011-001A,2026-07-18T04:04:48.553824,1.00161417,.00041849,9.7546,54.1862,35.1917,143.6383,0,U,37344,999,5679,0,.24E-6,0
RESOURCESAT-2,2011-015A,2026-07-18T14:53:33.951840,14.21600035,.00117578,98.7629,266.8426,161.5640,198.5965,0,U,37387,999,79064,.32179308E-4,.26E-6,0
YOUTHSAT,2011-015B,2026-07-18T09:47:42.628992,14.25641336,.00132268,98.3705,172.0582,248.9163,273.6599,0,U,37388,999,79208,.46539051E-4,.69E-6,0
APRIZESAT 6,2011-044F,2026-07-18T07:44:07.350720,14.76959345,.00427996,98.2333,110.4548,348.2433,132.8233,0,U,37793,999,80174,.55279494E-4,.338E-5,0
JUGNU,2011-058B,2026-07-18T01:55:11.864352,14.13783916,.00186205,19.9598,120.7356,58.2060,59.5664,0,U,37839,999,76340,.40697784E-4,.345E-5,0
SRMSAT,2011-058D,2026-07-18T11:34:44.308992,14.11581472,.00116646,19.9704,230.0483,187.3521,320.5069,0,U,37841,999,76224,.30967464E-4,.322E-5,0
SUOMI NPP,2011-061A,2026-07-18T13:34:45.667776,14.19522963,.00009107,98.7955,140.2287,197.7202,162.3942,0,U,37849,999,76289,.32176638E-4,.23E-6,0
YAOGAN-12,2011-066B,2026-07-18T04:48:57.297888,15.26911539,.00110036,97.1120,236.3139,113.0088,247.2313,0,U,37875,999,81677,.10727749E-3,.277E-4,0
BEIDOU-2 M4,2012-018B,2026-07-16T15:41:25.231200,1.86229271,.0012145,55.6306,303.0936,272.2408,87.6521,0,U,38251,999,9649,0,-.78E-6,0
ARIRANG-3 (KOMPSAT-3),2012-025B,2026-07-18T15:32:10.354848,14.62230555,.00060132,98.1187,156.5681,29.5038,330.6502,0,U,38338,999,75594,.41908997E-4,.165E-5,0
HORYU-2,2012-025D,2026-07-18T07:23:19.287168,14.91235882,.00092947,98.2213,333.5268,83.3499,276.8776,0,U,38340,999,75336,.15747094E-3,.1505E-4,0
CSSWE,2012-048D,2026-07-18T10:06:24.768864,15.46066008,.00406858,64.6638,347.5589,164.2677,195.9736,0,U,38761,999,12122,.37341749E-3,.18733E-3,0
CP5,2012-048F,2026-07-18T13:08:11.427072,15.28339029,.00735068,64.6446,48.8990,166.0101,194.3089,0,U,38763,999,12155,.23124377E-3,.6714E-4,0
METOP-B,2012-049A,2026-07-18T14:00:51.795648,14.21446965,.00011974,98.6487,250.4540,236.4280,123.6784,0,U,38771,999,71772,.36062771E-4,.36E-6,0
SJ-9A,2012-056A,2026-07-18T14:54:11.642112,14.85532206,.0026268,97.6732,170.4406,150.7784,209.4908,0,U,38860,999,70425,.60555367E-4,.474E-5,0
COSMOS 2484 (RODNIK-S 6),2013-001C,2026-07-18T14:51:23.154336,12.42940079,.0025502,82.4995,202.3506,328.0223,31.9308,0,U,39059,999,61246,-.10906906E-2,-.142E-5,0
